[{"OBJECT_NAME":"STARLINK-5781","OBJECT_ID":"2023-042AW","EPOCH":"2025-11-25T01:29:17.332224","MEAN_MOTION":15.02536944,"ECCENTRICITY":0.0001258,"INCLINATION":43.0046,"RA_OF_ASC_NODE":251.4429,"ARG_OF_PERICENTER":271.5101,"MEAN_ANOMALY":88.5597,"EPHEMERIS_TYPE":0,"CLASSIFICATION_TYPE":"U","NORAD_CAT_ID":56030,"ELEMENT_SET_NO":999,"REV_AT_EPOCH":14732,"BSTAR":-1.0967e-5,"MEAN_MOTION_DOT":-3.52e-6,"MEAN_MOTION_DDOT":0},{"OBJECT_NAME":"STARLINK-5785","OBJECT_ID":"2023-042AX","EPOCH":"2025-11-25T01:38:52.490112","MEAN_MOTION":15.02540326,"ECCENTRICITY":0.0001287,"INCLINATION":43.0047,"RA_OF_ASC_NODE":251.4917,"ARG_OF_PERICENTER":271.4491,"MEAN_ANOMALY":88.6204,"EPHEMERIS_TYPE":0,"CLASSIFICATION_TYPE":"U","NORAD_CAT_ID":56031,"ELEMENT_SET_NO":999,"REV_AT_EPOCH":14732,"BSTAR":7.2632e-5,"MEAN_MOTION_DOT":7.78e-6,"MEAN_MOTION_DDOT":0},{"OBJECT_NAME":"STARLINK-5786","OBJECT_ID":"2023-042AY","EPOCH":"2025-11-25T02:52:14.215008","MEAN_MOTION":15.02504482,"ECCENTRICITY":8.49e-5,"INCLINATION":43.0027,"RA_OF_ASC_NODE":251.0146,"ARG_OF_PERICENTER":253.831,"MEAN_ANOMALY":106.2439,"EPHEMERIS_TYPE":0,"CLASSIFICATION_TYPE":"U","NORAD_CAT_ID":56032,"ELEMENT_SET_NO":999,"REV_AT_EPOCH":14733,"BSTAR":0.000568,"MEAN_MOTION_DOT":7.471e-5,"MEAN_MOTION_DDOT":0},{"OBJECT_NAME":"STARLINK-5782","OBJECT_ID":"2023-042BA","EPOCH":"2025-11-25T02:50:37.828032","MEAN_MOTION":15.02539146,"ECCENTRICITY":0.0001136,"INCLINATION":43.0013,"RA_OF_ASC_NODE":251.004,"ARG_OF_PERICENTER":263.0925,"MEAN_ANOMALY":96.9788,"EPHEMERIS_TYPE":0,"CLASSIFICATION_TYPE":"U","NORAD_CAT_ID":56034,"ELEMENT_SET_NO":999,"REV_AT_EPOCH":14733,"BSTAR":4.8931e-6,"MEAN_MOTION_DOT":-1.37e-6,"MEAN_MOTION_DDOT":0},{"OBJECT_NAME":"STARLINK-5792","OBJECT_ID":"2023-042BB","EPOCH":"2025-11-25T03:01:48.946080","MEAN_MOTION":15.02537686,"ECCENTRICITY":0.0001155,"INCLINATION":43.0033,"RA_OF_ASC_NODE":251.0627,"ARG_OF_PERICENTER":263.0899,"MEAN_ANOMALY":96.9812,"EPHEMERIS_TYPE":0,"CLASSIFICATION_TYPE":"U","NORAD_CAT_ID":56035,"ELEMENT_SET_NO":999,"REV_AT_EPOCH":14733,"BSTAR":5.3045e-5,"MEAN_MOTION_DOT":5.13e-6,"MEAN_MOTION_DDOT":0},{"OBJECT_NAME":"STARLINK-5790","OBJECT_ID":"2023-042BC","EPOCH":"2025-11-25T02:55:25.781952","MEAN_MOTION":15.02533076,"ECCENTRICITY":9.45e-5,"INCLINATION":43.0025,"RA_OF_ASC_NODE":251.0287,"ARG_OF_PERICENTER":277.5001,"MEAN_ANOMALY":82.5734,"EPHEMERIS_TYPE":0,"CLASSIFICATION_TYPE":"U","NORAD_CAT_ID":56036,"ELEMENT_SET_NO":999,"REV_AT_EPOCH":14733,"BSTAR":-8.8624e-5,"MEAN_MOTION_DOT":-1.4e-5,"MEAN_MOTION_DDOT":0},{"OBJECT_NAME":"STARLINK-5758","OBJECT_ID":"2023-042BD","EPOCH":"2025-11-25T01:50:26.398752","MEAN_MOTION":15.02544075,"ECCENTRICITY":0.0001155,"INCLINATION":43.0031,"RA_OF_ASC_NODE":238.4944,"ARG_OF_PERICENTER":271.3676,"MEAN_ANOMALY":88.7034,"EPHEMERIS_TYPE":0,"CLASSIFICATION_TYPE":"U","NORAD_CAT_ID":56037,"ELEMENT_SET_NO":999,"REV_AT_EPOCH":14747,"BSTAR":-6.5394e-5,"MEAN_MOTION_DOT":-1.087e-5,"MEAN_MOTION_DDOT":0},{"OBJECT_NAME":"STARLINK-5793","OBJECT_ID":"2023-042BE","EPOCH":"2025-11-25T02:47:26.190240","MEAN_MOTION":15.02537868,"ECCENTRICITY":7.68e-5,"INCLINATION":43.0019,"RA_OF_ASC_NODE":250.9909,"ARG_OF_PERICENTER":285.7073,"MEAN_ANOMALY":74.3685,"EPHEMERIS_TYPE":0,"CLASSIFICATION_TYPE":"U","NORAD_CAT_ID":56038,"ELEMENT_SET_NO":999,"REV_AT_EPOCH":14733,"BSTAR":1.4424e-7,"MEAN_MOTION_DOT":-2.02e-6,"MEAN_MOTION_DDOT":0},{"OBJECT_NAME":"STARLINK-5795","OBJECT_ID":"2023-042BF","EPOCH":"2025-11-25T01:44:02.195232","MEAN_MOTION":15.02536645,"ECCENTRICITY":0.0001005,"INCLINATION":43.0009,"RA_OF_ASC_NODE":238.462,"ARG_OF_PERICENTER":284.1257,"MEAN_ANOMALY":75.9474,"EPHEMERIS_TYPE":0,"CLASSIFICATION_TYPE":"U","NORAD_CAT_ID":56039,"ELEMENT_SET_NO":999,"REV_AT_EPOCH":14747,"BSTAR":-1.2561e-5,"MEAN_MOTION_DOT":-3.73e-6,"MEAN_MOTION_DDOT":0},{"OBJECT_NAME":"STARLINK-5798","OBJECT_ID":"2023-042BG","EPOCH":"2025-11-25T01:40:50.651616","MEAN_MOTION":15.02533749,"ECCENTRICITY":9.53e-5,"INCLINATION":43.0026,"RA_OF_ASC_NODE":238.4403,"ARG_OF_PERICENTER":263.0549,"MEAN_ANOMALY":97.0185,"EPHEMERIS_TYPE":0,"CLASSIFICATION_TYPE":"U","NORAD_CAT_ID":56040,"ELEMENT_SET_NO":999,"REV_AT_EPOCH":14747,"BSTAR":-1.6556e-6,"MEAN_MOTION_DOT":-2.26e-6,"MEAN_MOTION_DDOT":0},{"OBJECT_NAME":"STARLINK-5800","OBJECT_ID":"2023-042BH","EPOCH":"2025-11-25T01:37:38.650080","MEAN_MOTION":15.02535306,"ECCENTRICITY":0.0001248,"INCLINATION":43.0038,"RA_OF_ASC_NODE":238.4248,"ARG_OF_PERICENTER":271.6384,"MEAN_ANOMALY":88.4316,"EPHEMERIS_TYPE":0,"CLASSIFICATION_TYPE":"U","NORAD_CAT_ID":56041,"ELEMENT_SET_NO":999,"REV_AT_EPOCH":14747,"BSTAR":0.00011671,"MEAN_MOTION_DOT":1.373e-5,"MEAN_MOTION_DDOT":0},{"OBJECT_NAME":"STARLINK-6109","OBJECT_ID":"2023-046B","EPOCH":"2025-11-25T03:35:02.353920","MEAN_MOTION":15.02540357,"ECCENTRICITY":9.71e-5,"INCLINATION":43.0047,"RA_OF_ASC_NODE":7.2299,"ARG_OF_PERICENTER":283.4103,"MEAN_ANOMALY":76.6631,"EPHEMERIS_TYPE":0,"CLASSIFICATION_TYPE":"U","NORAD_CAT_ID":56094,"ELEMENT_SET_NO":999,"REV_AT_EPOCH":14633,"BSTAR":-1.1867e-5,"MEAN_MOTION_DOT":-3.64e-6,"MEAN_MOTION_DDOT":0},{"OBJECT_NAME":"STARLINK-6090","OBJECT_ID":"2023-046C","EPOCH":"2025-11-25T02:08:53.769408","MEAN_MOTION":15.02540591,"ECCENTRICITY":0.0001398,"INCLINATION":43.0068,"RA_OF_ASC_NODE":7.6442,"ARG_OF_PERICENTER":264.481,"MEAN_ANOMALY":95.5873,"EPHEMERIS_TYPE":0,"CLASSIFICATION_TYPE":"U","NORAD_CAT_ID":56095,"ELEMENT_SET_NO":999,"REV_AT_EPOCH":14632,"BSTAR":7.0182e-5,"MEAN_MOTION_DOT":7.45e-6,"MEAN_MOTION_DDOT":0},{"OBJECT_NAME":"STARLINK-6089","OBJECT_ID":"2023-046D","EPOCH":"2025-11-25T03:31:50.475936","MEAN_MOTION":15.02538255,"ECCENTRICITY":0.0001276,"INCLINATION":43.0056,"RA_OF_ASC_NODE":7.215,"ARG_OF_PERICENTER":267.4338,"MEAN_ANOMALY":92.6359,"EPHEMERIS_TYPE":0,"CLASSIFICATION_TYPE":"U","NORAD_CAT_ID":56096,"ELEMENT_SET_NO":999,"REV_AT_EPOCH":14633,"BSTAR":4.9775e-5,"MEAN_MOTION_DOT":4.69e-6,"MEAN_MOTION_DDOT":0},{"OBJECT_NAME":"STARLINK-6077","OBJECT_ID":"2023-046E","EPOCH":"2025-11-25T00:20:16.080864","MEAN_MOTION":15.02534167,"ECCENTRICITY":0.0001043,"INCLINATION":43.0038,"RA_OF_ASC_NODE":315.8809,"ARG_OF_PERICENTER":278.9975,"MEAN_ANOMALY":81.0749,"EPHEMERIS_TYPE":0,"CLASSIFICATION_TYPE":"U","NORAD_CAT_ID":56097,"ELEMENT_SET_NO":999,"REV_AT_EPOCH":14691,"BSTAR":2.8077e-5,"MEAN_MOTION_DOT":1.76e-6,"MEAN_MOTION_DDOT":0},{"OBJECT_NAME":"STARLINK-6088","OBJECT_ID":"2023-046F","EPOCH":"2025-11-25T02:04:07.012128","MEAN_MOTION":15.02477482,"ECCENTRICITY":9.13e-5,"INCLINATION":43.0059,"RA_OF_ASC_NODE":7.6167,"ARG_OF_PERICENTER":271.8295,"MEAN_ANOMALY":88.2443,"EPHEMERIS_TYPE":0,"CLASSIFICATION_TYPE":"U","NORAD_CAT_ID":56098,"ELEMENT_SET_NO":999,"REV_AT_EPOCH":14632,"BSTAR":0.0010152,"MEAN_MOTION_DOT":0.00013515,"MEAN_MOTION_DDOT":0},{"OBJECT_NAME":"STARLINK-6076","OBJECT_ID":"2023-046H","EPOCH":"2025-11-25T03:17:27.523104","MEAN_MOTION":15.02536907,"ECCENTRICITY":0.0001417,"INCLINATION":43.0065,"RA_OF_ASC_NODE":7.1408,"ARG_OF_PERICENTER":265.7173,"MEAN_ANOMALY":94.3508,"EPHEMERIS_TYPE":0,"CLASSIFICATION_TYPE":"U","NORAD_CAT_ID":56100,"ELEMENT_SET_NO":999,"REV_AT_EPOCH":14633,"BSTAR":9.4302e-5,"MEAN_MOTION_DOT":1.07e-5,"MEAN_MOTION_DDOT":0}]
