STARLINK-5781           
1 56030U 23042AW  25329.06200616 -.00000352  00000+0 -10967-4 0  9995
2 56030  43.0046 251.4429 0001258 271.5101  88.5597 15.02536944147321
STARLINK-5785           
1 56031U 23042AX  25329.06866308  .00000778  00000+0  72632-4 0  9999
2 56031  43.0047 251.4917 0001287 271.4491  88.6204 15.02540326147323
STARLINK-5786           
1 56032U 23042AY  25329.11960897  .00007471  00000+0  56800-3 0  9999
2 56032  43.0027 251.0146 0000849 253.8310 106.2439 15.02504482147330
STARLINK-5782           
1 56034U 23042BA  25329.11849338 -.00000137  00000+0  48931-5 0  9998
2 56034  43.0013 251.0040 0001136 263.0925  96.9788 15.02539146147332
STARLINK-5792           
1 56035U 23042BB  25329.12626095  .00000513  00000+0  53045-4 0  9991
2 56035  43.0033 251.0627 0001155 263.0899  96.9812 15.02537686147332
STARLINK-5790           
1 56036U 23042BC  25329.12182618 -.00001400  00000+0 -88624-4 0  9999
2 56036  43.0025 251.0287 0000945 277.5001  82.5734 15.02533076147330
STARLINK-5758           
1 56037U 23042BD  25329.07669443 -.00001087  00000+0 -65394-4 0  9990
2 56037  43.0031 238.4944 0001155 271.3676  88.7034 15.02544075147478
STARLINK-5793           
1 56038U 23042BE  25329.11627535 -.00000202  00000+0  14424-6 0  9999
2 56038  43.0019 250.9909 0000768 285.7073  74.3685 15.02537868147334
STARLINK-5795           
1 56039U 23042BF  25329.07224763 -.00000373  00000+0 -12561-4 0  9999
2 56039  43.0009 238.4620 0001005 284.1257  75.9474 15.02536645147477
STARLINK-5798           
1 56040U 23042BG  25329.07003069 -.00000226  00000+0 -16556-5 0  9991
2 56040  43.0026 238.4403 0000953 263.0549  97.0185 15.02533749147474
STARLINK-5800           
1 56041U 23042BH  25329.06780845  .00001373  00000+0  11671-3 0  9998
2 56041  43.0038 238.4248 0001248 271.6384  88.4316 15.02535306147476
STARLINK-6109           
1 56094U 23046B   25329.14933280 -.00000364  00000+0 -11867-4 0  9991
2 56094  43.0047   7.2299 0000971 283.4103  76.6631 15.02540357146339
STARLINK-6090           
1 56095U 23046C   25329.08951122  .00000745  00000+0  70182-4 0  9996
2 56095  43.0068   7.6442 0001398 264.4810  95.5873 15.02540591146322
STARLINK-6089           
1 56096U 23046D   25329.14711199  .00000469  00000+0  49775-4 0  9999
2 56096  43.0056   7.2150 0001276 267.4338  92.6359 15.02538255146337
STARLINK-6077           
1 56097U 23046E   25329.01407501  .00000176  00000+0  28077-4 0  9992
2 56097  43.0038 315.8809 0001043 278.9975  81.0749 15.02534167146910
STARLINK-6088           
1 56098U 23046F   25329.08619227  .00013515  00000+0  10152-2 0  9994
2 56098  43.0059   7.6167 0000913 271.8295  88.2443 15.02477482146320
STARLINK-6076           
1 56100U 23046H   25329.13712411  .00001070  00000+0  94302-4 0  9997
2 56100  43.0065   7.1408 0001417 265.7173  94.3508 15.02536907146330
